$$SOE
2460147.500000000, A.D. 2023-Jul-22 00:00:00.0000, 1.195504030392428E+08, -5.444640787081188E+08, 2.553708471648574E+07,
2460154.500000000, A.D. 2023-Jul-29 00:00:00.0000, 1.281453969345289E+08, -5.420030701163874E+08, 2.380747104769763E+07,
2460161.500000000, A.D. 2023-Aug-05 00:00:00.0000, 1.367044261797622E+08, -5.393901704477468E+08, 2.207118642211261E+07,
2460168.500000000, A.D. 2023-Aug-12 00:00:00.0000, 1.452249714680294E+08, -5.366256465870357E+08, 2.032869850425333E+07,
2460175.500000000, A.D. 2023-Aug-19 00:00:00.0000, 1.537045075869980E+08, -5.337098049444669E+08, 1.858047937288523E+07,
2460182.500000000, A.D. 2023-Aug-26 00:00:00.0000, 1.621405038480428E+08, -5.306429918271704E+08, 1.682700549076101E+07,
2460189.500000000, A.D. 2023-Sep-02 00:00:00.0000, 1.705304245097566E+08, -5.274255938855925E+08, 1.506875766713908E+07,
2460196.500000000, A.D. 2023-Sep-09 00:00:00.0000, 1.788717292327257E+08, -5.240580386758892E+08, 1.330622100627178E+07,
2460203.500000000, A.D. 2023-Sep-16 00:00:00.0000, 1.871618737343518E+08, -5.205407953960732E+08, 1.153988482160622E+07,
2460210.500000000, A.D. 2023-Sep-23 00:00:00.0000, 1.953983110605409E+08, -5.168743755089486E+08, 9.770242500906557E+06,
2460217.500000000, A.D. 2023-Sep-30 00:00:00.0000, 2.035784931349657E+08, -5.130593320609875E+08, 7.997791450757504E+06,
2460224.500000000, A.D. 2023-Oct-07 00:00:00.0000, 2.116998702321061E+08, -5.090962582393732E+08, 6.223033291956604E+06,
2460231.500000000, A.D. 2023-Oct-14 00:00:00.0000, 2.197598894140619E+08, -5.049857884789758E+08, 4.446473939585000E+06,
2460238.500000000, A.D. 2023-Oct-21 00:00:00.0000, 2.277559951604823E+08, -5.007286005153952E+08, 2.668623402594179E+06,
2460245.500000000, A.D. 2023-Oct-28 00:00:00.0000, 2.356856307680856E+08, -4.963254161235913E+08, 8.899956183839142E+05,
2460252.500000000, A.D. 2023-Nov-04 00:00:00.0000, 2.435462392702491E+08, -4.917770013121285E+08, -8.888916257762015E+05,
2460259.500000000, A.D. 2023-Nov-11 00:00:00.0000, 2.513352640546212E+08, -4.870841665723304E+08, -2.667516749650687E+06,
2460266.500000000, A.D. 2023-Nov-18 00:00:00.0000, 2.590501493986117E+08, -4.822477672459829E+08, -4.445354440537125E+06,
2460273.500000000, A.D. 2023-Nov-25 00:00:00.0000, 2.666883409958738E+08, -4.772687039882695E+08, -6.221875722107112E+06,
2460280.500000000, A.D. 2023-Dec-02 00:00:00.0000, 2.742472865022085E+08, -4.721479233362159E+08, -7.996548035064518E+06,
2460287.500000000, A.D. 2023-Dec-09 00:00:00.0000, 2.817244361790823E+08, -4.668864184404713E+08, -9.768835341614008E+06,
2460294.500000000, A.D. 2023-Dec-16 00:00:00.0000, 2.891172439229514E+08, -4.614852299469018E+08, -1.153819827918071E+07,
2460301.500000000, A.D. 2023-Dec-23 00:00:00.0000, 2.964231690296406E+08, -4.559454463400462E+08, -1.330409433930266E+07,
2460308.500000000, A.D. 2023-Dec-30 00:00:00.0000, 3.036396773540182E+08, -4.502682026990218E+08, -1.506597786322227E+07,
2460315.500000000, A.D. 2024-Jan-06 00:00:00.0000, 3.107642400923277E+08, -4.444546802258409E+08, -1.682329988483766E+07,
2460322.500000000, A.D. 2024-Jan-13 00:00:00.0000, 3.177943333598152E+08, -4.385061083513733E+08, -1.857550826008472E+07,
2460329.500000000, A.D. 2024-Jan-20 00:00:00.0000, 3.247274397878451E+08, -4.324237663330946E+08, -2.032204794329023E+07,
2460336.500000000, A.D. 2024-Jan-27 00:00:00.0000, 3.315610501124533E+08, -4.262089836917653E+08, -2.206236117147511E+07,
2460343.500000000, A.D. 2024-Feb-03 00:00:00.0000, 3.382926643263742E+08, -4.198631404349434E+08, -2.379588759519541E+07,
2460350.500000000, A.D. 2024-Feb-10 00:00:00.0000, 3.449197926722205E+08, -4.133876673575867E+08, -2.552206440549979E+07,
2460357.500000000, A.D. 2024-Feb-17 00:00:00.0000, 3.514399566158032E+08, -4.067840464109550E+08, -2.724032646939310E+07,
2460364.500000000, A.D. 2024-Feb-24 00:00:00.0000, 3.578506898356730E+08, -4.000538111241608E+08, -2.895010647618636E+07,
2460371.500000000, A.D. 2024-Mar-02 00:00:00.0000, 3.641495392581431E+08, -3.931985471099130E+08, -3.065083510033607E+07,
2460378.500000000, A.D. 2024-Mar-09 00:00:00.0000, 3.703340662763413E+08, -3.862198927160601E+08, -3.234194119885561E+07,
2460385.500000000, A.D. 2024-Mar-16 00:00:00.0000, 3.764018485484269E+08, -3.791195396242912E+08, -3.402285206358700E+07,
2460392.500000000, A.D. 2024-Mar-23 00:00:00.0000, 3.823504822713612E+08, -3.718992322858449E+08, -3.569299362830614E+07,
2460399.500000000, A.D. 2024-Mar-30 00:00:00.0000, 3.881775826885961E+08, -3.645607662200428E+08, -3.735179042734899E+07,
2460406.500000000, A.D. 2024-Apr-06 00:00:00.0000, 3.938807830865552E+08, -3.571059885412385E+08, -3.899866560447535E+07,
2460413.500000000, A.D. 2024-Apr-13 00:00:00.0000, 3.994577358306032E+08, -3.495367998749135E+08, -4.063304122934262E+07,
2460420.500000000, A.D. 2024-Apr-20 00:00:00.0000, 4.049061144892105E+08, -3.418551549843769E+08, -4.225433861557508E+07,
2460427.500000000, A.D. 2024-Apr-27 00:00:00.0000, 4.102236155302372E+08, -3.340630626686264E+08, -4.386197854725872E+07,
2460434.500000000, A.D. 2024-May-04 00:00:00.0000, 4.154079596776119E+08, -3.261625856341307E+08, -4.545538147949001E+07,
2460441.500000000, A.D. 2024-May-11 00:00:00.0000, 4.204568931665904E+08, -3.181558404414666E+08, -4.703396774318135E+07,
2460448.500000000, A.D. 2024-May-18 00:00:00.0000, 4.253681889790507E+08, -3.100449975039951E+08, -4.859715775982149E+07,
2460455.500000000, A.D. 2024-May-25 00:00:00.0000, 4.301396480827380E+08, -3.018322811441998E+08, -5.014437226891412E+07,
2460462.500000000, A.D. 2024-Jun-01 00:00:00.0000, 4.347691007332264E+08, -2.935199697632960E+08, -5.167503257806914E+07,
2460469.500000000, A.D. 2024-Jun-08 00:00:00.0000, 4.392544080837837E+08, -2.851103961448157E+08, -5.318856085993639E+07,
2460476.500000000, A.D. 2024-Jun-15 00:00:00.0000, 4.435934645019906E+08, -2.766059473446699E+08, -5.468438048777141E+07,
2460483.500000000, A.D. 2024-Jun-22 00:00:00.0000, 4.477841995880007E+08, -2.680090629908816E+08, -5.616191622116466E+07,
2460490.500000000, A.D. 2024-Jun-29 00:00:00.0000, 4.518245777724082E+08, -2.593222338129834E+08, -5.762059419596083E+07,
2460497.500000000, A.D. 2024-Jul-06 00:00:00.0000, 4.557125981369281E+08, -2.505480028706344E+08, -5.905984216263810E+07,
2460504.500000000, A.D. 2024-Jul-13 00:00:00.0000, 4.594462964056144E+08, -2.416889666550348E+08, -6.047908992086625E+07,
2460511.500000000, A.D. 2024-Jul-20 00:00:00.0000, 4.630237471202624E+08, -2.327477749126833E+08, -6.187776967409854E+07,
2460518.500000000, A.D. 2024-Jul-27 00:00:00.0000, 4.664430653431962E+08, -2.237271301496241E+08, -6.325531632240528E+07,
2460525.500000000, A.D. 2024-Aug-03 00:00:00.0000, 4.697024081592550E+08, -2.146297871897822E+08, -6.461116774923781E+07,
2460532.500000000, A.D. 2024-Aug-10 00:00:00.0000, 4.727999761414407E+08, -2.054585527903835E+08, -6.594476511774763E+07,
2460539.500000000, A.D. 2024-Aug-17 00:00:00.0000, 4.757340148260929E+08, -1.962162852912195E+08, -6.725555317929903E+07,
2460546.500000000, A.D. 2024-Aug-24 00:00:00.0000, 4.785028162237265E+08, -1.869058943185042E+08, -6.854298059861284E+07,
2460553.500000000, A.D. 2024-Aug-31 00:00:00.0000, 4.811047204789928E+08, -1.775303406032159E+08, -6.980650031116277E+07,
2460560.500000000, A.D. 2024-Sep-07 00:00:00.0000, 4.835381180426896E+08, -1.680926357855058E+08, -7.104556993588139E+07,
2460567.500000000, A.D. 2024-Sep-14 00:00:00.0000, 4.858014524390476E+08, -1.585958412067699E+08, -7.225965216944362E+07,
2460574.500000000, A.D. 2024-Sep-21 00:00:00.0000, 4.878932215987958E+08, -1.490430652750154E+08, -7.344821494237745E+07,
2460581.500000000, A.D. 2024-Sep-28 00:00:00.0000, 4.898119772693493E+08, -1.394374626305524E+08, -7.461073155617359E+07,
2460588.500000000, A.D. 2024-Oct-05 00:00:00.0000, 4.915563261690902E+08, -1.297822351091008E+08, -7.574668113767824E+07,
2460595.500000000, A.D. 2024-Oct-12 00:00:00.0000, 4.931249325229086E+08, -1.200806315203597E+08, -7.685554913394232E+07,
2460602.500000000, A.D. 2024-Oct-19 00:00:00.0000, 4.945165202267104E+08, -1.103359465116040E+08, -7.793682770897889E+07,
2460609.500000000, A.D. 2024-Oct-26 00:00:00.0000, 4.957298746070304E+08, -1.005515193169091E+08, -7.899001610486197E+07,
2460616.500000000, A.D. 2024-Nov-02 00:00:00.0000, 4.967638440313202E+08, -9.073073253973144E+07, -8.001462100272667E+07,
2460623.500000000, A.D. 2024-Nov-09 00:00:00.0000, 4.976173414634923E+08, -8.087701094761392E+07, -8.101015689058226E+07,
2460630.500000000, A.D. 2024-Nov-16 00:00:00.0000, 4.982893459882825E+08, -7.099382027841258E+07, -8.197614643992653E+07,
2460637.500000000, A.D. 2024-Nov-23 00:00:00.0000, 4.987789043484902E+08, -6.108466610780564E+07, -8.291212089901932E+07,
2460644.500000000, A.D. 2024-Nov-30 00:00:00.0000, 4.990851326996560E+08, -5.115309282059443E+07, -8.381762052463223E+07,
2460651.500000000, A.D. 2024-Dec-07 00:00:00.0000, 4.992072189970453E+08, -4.120268226432471E+07, -8.469219505529305E+07,
2460658.500000000, A.D. 2024-Dec-14 00:00:00.0000, 4.991444253225977E+08, -3.123705085922996E+07, -8.553540406179006E+07,
2460665.500000000, A.D. 2024-Dec-21 00:00:00.0000, 4.988960878321060E+08, -2.125984640380099E+07, -8.634681706323814E+07,
2460672.500000000, A.D. 2024-Dec-28 00:00:00.0000, 4.984616162938474E+08, -1.127474754371824E+07, -8.712601383188435E+07,
2460679.500000000, A.D. 2025-Jan-04 00:00:00.0000, 4.978404958129499E+08, -1.285463528430324E+06, -8.787258493004626E+07,
2460686.500000000, A.D. 2025-Jan-11 00:00:00.0000, 4.970322889176286E+08, 8.704267404236998E+06, -8.858613217579524E+07,
2460693.500000000, A.D. 2025-Jan-18 00:00:00.0000, 4.960366370880769E+08, 1.869068009588174E+07, -8.926626902770315E+07,
2460700.500000000, A.D. 2025-Jan-25 00:00:00.0000, 4.948532619687973E+08, 2.866998451215659E+07, -8.991262094897841E+07,
2460707.500000000, A.D. 2025-Feb-01 00:00:00.0000, 4.934819664508284E+08, 3.863836773308475E+07, -9.052482576993449E+07,
2460714.500000000, A.D. 2025-Feb-08 00:00:00.0000, 4.919226356791508E+08, 4.859199590774436E+07, -9.110253405162114E+07,
$$EOE